INTELSAT 10 (IS-10)     
1 26766U 01019A   25286.56624513  .00000021  00000+0  00000+0 0  9994
2 26766   8.4831  61.7520 0005264 195.0707   7.0153  0.99076232 43135
INTELSAT 902 (IS-902)   
1 26900U 01039A   25281.76807552 -.00000279  00000+0  00000+0 0  9995
2 26900   5.4788  74.8408 0004201 119.7746  49.4647  1.00271851 88177
INTELSAT 904 (IS-904)   
1 27380U 02007A   25277.70507032 -.00000198  00000+0  00000+0 0  9993
2 27380   6.2753  72.2328 0001108 157.5250  10.1766  1.00265842 49208
DIRECTV 5 (TEMPO 1)     
1 27426U 02023A   25285.89487103 -.00000066  00000+0  00000+0 0  9991
2 27426   4.2427  78.3823 0004016 146.0575   9.3361  1.00272115 85646
INTELSAT 905 (IS-905)   
1 27438U 02027A   25283.03530535  .00000095  00000+0  00000+0 0  9991
2 27438   6.1208  72.7969 0002555 129.1870  52.4588  1.00273403 48855
GALAXY 3C (G-3C)        
1 27445U 02030A   25286.54007167 -.00000164  00000+0  00000+0 0  9990
2 27445   3.1077  81.1255 0001658  75.2467 325.5748  1.00271314 44028
INTELSAT 906 (IS-906)   
1 27513U 02041A   25286.50020481  .00000003  00000+0  00000+0 0  9999
2 27513   5.1722  75.9506 0004103 160.3035  30.2964  1.00273289 84553
GALAXY 13 (HORIZONS-1)  
1 27954U 03044A   25286.60047862  .00000120  00000+0  00000+0 0  9995
2 27954   0.7761  87.2853 0002146 114.5375 246.7706  1.00271501 44098
INTELSAT 10-02          
1 28358U 04022A   25286.34455932 -.00000023  00000+0  00000+0 0  9996
2 28358   0.0181 103.4540 0000964 152.2564 249.5032  1.00272147 78081
XM-3 (RHYTHM)           
1 28626U 05008A   25286.54171834 -.00000212  00000+0  00000+0 0  9997
2 28626   0.0435  33.8339 0000188 183.1633 274.0537  1.00271858 40159
DIRECTV 8               
1 28659U 05019A   25286.60663198 -.00000012  00000+0  00000+0 0  9999
2 28659   0.0171 236.7719 0003577 348.2295 256.7749  1.00272192 74602
GALAXY 28 (G-28)        
1 28702U 05022A   25285.82775465 -.00000194  00000+0  00000+0 0  9997
2 28702   2.6587  81.9976 0005170 166.0076 342.9422  1.00249080 49506
GALAXY 16 (G-16)        
1 29236U 06023A   25286.61061867 -.00000139  00000+0  00000+0 0  9993
2 29236   0.0204 209.1203 0002738   1.4469 292.6725  1.00268180 70502
DIRECTV 9S              
1 29494U 06043A   25286.61018534 -.00000125  00000+0  00000+0 0  9999
2 29494   1.7808  83.8860 0003166 127.0496 289.9654  1.00271476 48915
GALAXY 17 (G-17)        
1 31307U 07016B   25286.54197834 -.00000218  00000+0  00000+0 0  9992
2 31307   2.3443  83.0041 0006605 159.7500 249.7257  1.00270539 67334
DIRECTV 10              
1 31862U 07032A   25286.14767053 -.00000115  00000+0  00000+0 0  9994
2 31862   0.0212 347.0288 0000921 250.0550  95.2694  1.00271482 43117
INTELSAT 11 (IS-11)     
1 32253U 07044B   25286.58470521 -.00000270  00000+0  00000+0 0  9993
2 32253   2.9194  81.6769 0008779 135.6755 145.8633  0.99051594 66006
HORIZONS-2              
1 32388U 07063B   25286.54423169 -.00000265  00000+0  00000+0 0  9999
2 32388   1.9619  83.6509 0003449 154.2950 266.5541  1.00270683 65343
DIRECTV 11              
1 32729U 08013A   25286.61053200 -.00000139  00000+0  00000+0 0  9997
2 32729   0.0108  33.0460 0000136 126.4594 343.5221  1.00271752 43126
GALAXY 18 (G-18)        
1 32951U 08024A   25286.60585198  .00000000  00000+0  00000+0 0  9997
2 32951   0.0174 196.3068 0003138  12.5619 268.6349  1.00270797 43385
INTELSAT 25 (IS-25)     
1 33153U 08034A   25286.40990630 -.00000235  00000+0  00000+0 0  9993
2 33153   2.0682  83.3472 0004481 143.7757 271.1689  1.00270450 63229
GALAXY 19 (G-19)        
1 33376U 08045A   25286.46824620 -.00000152  00000+0  00000+0 0  9991
2 33376   0.0161 231.2194 0002935 338.4218 244.2240  1.00271469 62424
FM-5                    
1 35493U 09034A   25286.61313201 -.00000213  00000+0  00000+0 0  9995
2 35493   0.0275 263.2831 0000612 221.5753  32.1592  1.00270510 44173
INTELSAT 14 (IS-14)     
1 36097U 09064A   25286.39350144 -.00000286  00000+0  00000+0 0  9991
2 36097   0.0220  89.8353 0002586 117.0774 271.9668  1.00270683 58138
INTELSAT 15 (IS-15)     
1 36106U 09067A   25286.57577850 -.00000198  00000+0  00000+0 0  9992
2 36106   0.0218 102.0522 0002423 109.8413 102.9348  1.00270976 38750
DIRECTV 12              
1 36131U 09075A   25286.03901417 -.00000115  00000+0  00000+0 0  9999
2 36131   0.0046  29.8208 0000775 193.1272  70.2344  1.00269123 44078
INTELSAT 16 (IS-16)     
1 36397U 10006A   25286.54379836 -.00000257  00000+0  00000+0 0  9996
2 36397   0.0163 253.4564 0002723 329.6098 278.8672  1.00270850 57184
XM-5                    
1 37185U 10053A   25286.53608498 -.00000036  00000+0  00000+0 0  9997
2 37185   0.0626 268.5912 0000304 199.4374 352.1315  1.00270830 55008
INTELSAT 17 (IS-17)     
1 37238U 10065B   25286.57196515 -.00000015  00000+0  00000+0 0  9992
2 37238   0.0100 187.0147 0002812  30.6316  76.6576  1.00271965 50773
INTELSAT 28 (IS-28)     
1 37392U 11016A   25286.40990630 -.00000237  00000+0  00000+0 0  9998
2 37392   1.1645  85.7706 0004302 127.2991 285.0314  1.00270519 50818
INTELSAT 18 (IS-18)     
1 37834U 11056A   25286.58447523  .00000040  00000+0  00000+0 0  9991
2 37834   0.0167 243.7426 0001940 322.0364 207.0521  1.00270416 51333
INTELSAT 22 (IS-22)     
1 38098U 12011A   25286.50185149 -.00000071  00000+0  00000+0 0  9996
2 38098   0.0238 115.2943 0001781  87.9945  71.7978  1.00271459  4717
INTELSAT 19 (IS-19)     
1 38356U 12030A   25286.59181191 -.00000069  00000+0  00000+0 0  9993
2 38356   0.0151 261.8747 0003268 311.6111 187.9863  1.00269852 47974
INTELSAT 20 (IS-20)     
1 38740U 12043A   25286.50107148 -.00000037  00000+0  00000+0 0  9990
2 38740   0.0100 180.0280 0002282 352.0576  99.1219  1.00270521 48276
INTELSAT 21 (IS-21)     
1 38749U 12045A   25286.23030848 -.00000297  00000+0  00000+0 0  9991
2 38749   0.0565  78.5784 0002435 143.9538 184.4368  1.00270327 48047
INTELSAT 23 (IS-23)     
1 38867U 12057A   25286.39350144 -.00000297  00000+0  00000+0 0  9996
2 38867   0.0115 222.5678 0002031  31.7545 216.5703  1.00269874 47488
FM-6                    
1 39360U 13058A   25286.15878056 -.00000029  00000+0  00000+0 0  9991
2 39360   0.0206 133.0171 0002473  38.8086 151.1743  1.00269680 43580
INTELSAT 30 (IS-30)     
1 40271U 14062A   25286.46867954 -.00000163  00000+0  00000+0 0  9998
2 40271   0.0024 201.1856 0001323 221.3691  33.4007  1.00271264  4316
DIRECTV 14              
1 40333U 14078B   25286.39647288 -.00000138  00000+0  00000+0 0  9994
2 40333   0.0170 207.8068 0000670  31.4764 186.4321  1.00270140 39565
DIRECTV 15              
1 40663U 15026A   25286.46711954 -.00000115  00000+0  00000+0 0  9999
2 40663   0.0443  75.1941 0000303 111.7755 260.6339  1.00272092 37981
SKY MEXICO-1            
1 40664U 15026B   25286.54327836 -.00000247  00000+0  00000+0 0  9997
2 40664   0.0204 266.4112 0002217 299.0808 293.6943  1.00270659 37981
INTELSAT 34 (IS-34)     
1 40874U 15039A   25286.40513961 -.00000298  00000+0  00000+0 0  9991
2 40874   0.0229 266.0919 0000405 110.4656  96.0113  1.00271797 37153
INTELSAT 31 (IS-31)     
1 41581U 16035A   25285.54105997 -.00000161  00000+0  00000+0 0  9993
2 41581   0.0177 238.4112 0001895 351.8751 250.8063  1.00270996 34207
INTELSAT 36 (IS-36)     
1 41747U 16053A   25286.60837681 -.00000037  00000+0  00000+0 0  9999
2 41747   0.0129 290.8247 0001611  52.8151 326.2883  1.00270835 33475
INTELSAT 32E (IS-32E)   
1 41945U 17007B   25285.90814690 -.00000280  00000+0  00000+0 0  9996
2 41945   0.0211 110.7675 0000359 216.4708 338.2528  1.00270280 31747
INTELSAT 35E (IS-35E)   
1 42818U 17041A   25286.38794631 -.00000250  00000+0  00000+0 0  9996
2 42818   0.0137 248.0436 0002785 336.1338 263.2011  1.00272083 30340
INTELSAT 37E (IS-37E)   
1 42950U 17059A   25286.41259297  .00000000  00000+0  00000+0 0  9992
2 42950   0.0162 205.8767 0003028   5.3945 301.4725  1.00268900 29598
AZERSPACE 2 (IS-38)     
1 43632U 18074A   25286.54836230  .00000124  00000+0  00000+0 0  9997
2 43632   0.0185 228.5367 0001487 335.6532  60.6990  1.00270314 25975
HORIZONS-3E             
1 43633U 18074B   25286.59233191  .00000000  00000+0  00000+0 0  9993
2 43633   0.0141 206.5125 0001710  84.9171 113.1959  1.00270315 25866
AT&T T-16               
1 44333U 19034A   25286.14767053 -.00000127  00000+0  00000+0 0  9999
2 44333   0.0295  94.1753 0000553  75.3647 164.7449  1.00270616 23158
INTELSAT 39 (IS-39)     
1 44476U 19049B   25286.57118515  .00000021  00000+0  00000+0 0  9995
2 44476   0.0182 230.4548 0000340 100.5849 318.9189  1.00270682 22658
GALAXY 30 (G-30)        
1 46114U 20056C   25286.53409164  .00000000  00000+0  00000+0 0  9992
2 46114   0.0146 192.8488 0002617  19.9760 236.7968  1.00269683 18811
GALAXY 33 (G-33)        
1 54026U 22128A   25286.53253163  .00000066  00000+0  00000+0 0  9993
2 54026   0.0199 267.5513 0001971 297.1965 236.3132  1.00272972 11264
GALAXY 34 (G-34)        
1 54027U 22128B   25286.53331163  .00000046  00000+0  00000+0 0  9999
2 54027   0.0211 255.3031 0001504 304.0528 246.0020  1.00272451 11430
GALAXY 31 (G-31)        
1 54243U 22153A   25286.53487164  .00000000  00000+0  00000+0 0  9990
2 54243   0.0197 235.2152 0001808 351.9148 226.7775  1.00272597  4659
GALAXY 32 (G-32)        
1 54244U 22153B   25286.54085168 -.00000187  00000+0  00000+0 0  9997
2 54244   0.0149 266.6025 0001102  12.9029 206.5638  1.00271445 10677
GALAXY 35 (G-35)        
1 54741U 22170A   25286.54041833 -.00000175  00000+0  00000+0 0  9996
2 54741   0.0139 148.7853 0002172  63.0492 271.9642  1.00271092 10428
GALAXY 36 (G-36)        
1 54742U 22170B   25286.54119834 -.00000198  00000+0  00000+0 0  9999
2 54742   0.0095 206.9096 0001274 321.2328 320.0497  1.00270885 10305
GALAXY 37 (G-37)        
1 57493U 23112A   25286.53365830  .00000000  00000+0  00000+0 0  9991
2 57493   0.0123 210.4509 0002304  10.7285 226.2743  1.00270975  8060
